XRISM                   
1 57800U 23137A   23280.02713575  .00007674  00000+0  62567-3 0  9993
2 57800  31.0027 186.4394 0010285 215.6442 144.3507 14.98128581  4500
